{
    "links": {
        "self": "http://www.neowsapp.com/rest/v1/neo/3384404?api_key=iIulBulltgU6a56xZRHN4H3l9WmuAYTsLGpBGhQ2"
    },
    "id": "3384404",
    "neo_reference_id": "3384404",
    "name": "(2007 RS17)",
    "designation": "2007 RS17",
    "nasa_jpl_url": "http://ssd.jpl.nasa.gov/sbdb.cgi?sstr=3384404",
    "absolute_magnitude_h": 22.9,
    "estimated_diameter": {
        "kilometers": {
            "estimated_diameter_min": 0.0699125232,
            "estimated_diameter_max": 0.1563291544
        },
        "meters": {
            "estimated_diameter_min": 69.9125232246,
            "estimated_diameter_max": 156.3291544087
        },
        "miles": {
            "estimated_diameter_min": 0.0434416145,
            "estimated_diameter_max": 0.097138403
        },
        "feet": {
            "estimated_diameter_min": 229.3718026961,
            "estimated_diameter_max": 512.8909429502
        }
    },
    "is_potentially_hazardous_asteroid": false,
    "close_approach_data": [
        {
            "close_approach_date": "1998-09-22",
            "close_approach_date_full": "1998-Sep-22 00:28",
            "epoch_date_close_approach": 906424080000,
            "relative_velocity": {
                "kilometers_per_second": "22.3195819124",
                "kilometers_per_hour": "80350.4948845111",
                "miles_per_hour": "49926.6727797675"
            },
            "miss_distance": {
                "astronomical": "0.3704312407",
                "lunar": "144.0977526323",
                "kilometers": "55415724.590177309",
                "miles": "34433734.5468485042"
            },
            "orbiting_body": "Earth"
        },
        {
            "close_approach_date": "2007-09-13",
            "close_approach_date_full": "2007-Sep-13 07:00",
            "epoch_date_close_approach": 1189666800000,
            "relative_velocity": {
                "kilometers_per_second": "17.8321205276",
                "kilometers_per_hour": "64195.6338992732",
                "miles_per_hour": "39888.6704081345"
            },
            "miss_distance": {
                "astronomical": "0.1675529632",
                "lunar": "65.1781026848",
                "kilometers": "25065566.406908384",
                "miles": "15575020.7419443392"
            },
            "orbiting_body": "Earth"
        }
    ],
    "orbital_data": {
        "orbit_id": "10",
        "orbit_determination_date": "2017-04-06 09:06:02",
        "first_observation_date": "2007-09-13",
        "last_observation_date": "2007-10-08",
        "data_arc_in_days": 25,
        "observations_used": 30,
        "orbit_uncertainty": "7",
        "minimum_orbit_intersection": ".145827",
        "jupiter_tisserand_invariant": "4.384",
        "epoch_osculation": "2459000.5",
        "eccentricity": ".2600081677948188",
        "semi_major_axis": "1.471827565524348",
        "inclination": "34.23891281775484",
        "ascending_node_longitude": "354.6151940168736",
        "orbital_period": "652.2045519632857",
        "perihelion_distance": "1.089140376902453",
        "perihelion_argument": "315.8080050635775",
        "aphelion_distance": "1.854514754146242",
        "perihelion_time": "2458875.963284445202",
        "mean_anomaly": "68.74103755450506",
        "mean_motion": ".5519740684365315",
        "equinox": "J2000",
        "orbit_class": {
            "orbit_class_type": "AMO",
            "orbit_class_description": "Near-Earth asteroid orbits similar to that of 1221 Amor",
            "orbit_class_range": "1.017 AU < q (perihelion) < 1.3 AU"
        }
    },
    "is_sentry_object": false
}